NORAD_CAT_ID,OBJECT_NAME,OBJECT_TYPE,EPOCH,MEAN_MOTION,ECCENTRICITY,INCLINATION,RA_OF_ASC_NODE,ARG_OF_PERICENTER,MEAN_ANOMALY,BSTAR,MEAN_MOTION_DOT,MEAN_MOTION_DDOT,TLE_LINE0,TLE_LINE1,TLE_LINE2,SEMIMAJOR_AXIS,PERIOD,APOGEE,PERIGEE,DECAYED
55935.0,STARLINK-5920,PAYLOAD,2023-05-19 00:55:16,15.69926484,0.0003663,69.9992,5.9982,271.1315,88.9461,1.2061e-05,1.238e-05,0.0,0 STARLINK-5920,1 55935U 23037X   23139.03838235  .00001238  00000-0  12061-4 0  9990,2 55935  69.9992   5.9982 0003663 271.1315  88.9461 15.69926484 10308,6737.244,91.724,361.577,356.641,0.0
55935.0,STARLINK-5920,PAYLOAD,2023-05-19 19:16:17,15.69925279,0.0003833,69.9997,3.8488,271.0641,89.0115,5.4737e-06,4.45e-06,0.0,0 STARLINK-5920,1 55935U 23037X   23139.80298348  .00000445  00000-0  54737-5 0  9996,2 55935  69.9997   3.8488 0003833 271.0641  89.0115 15.69925279 10085,6737.248,91.724,361.695,356.53,0.0
55935.0,STARLINK-5920,PAYLOAD,2023-05-20 18:12:33,15.69940003,0.0003535,69.9994,1.1597,269.6209,90.4582,2.4912e-05,2.786e-05,0.0,0 STARLINK-5920,1 55935U 23037X   23140.75872549  .00002786  00000-0  24912-4 0  9994,2 55935  69.9994   1.1597 0003535 269.6209  90.4582 15.69940003 10576,6737.206,91.723,361.452,356.689,0.0
55935.0,STARLINK-5920,PAYLOAD,2023-05-20 21:16:04,15.69926409,0.000374,69.9994,0.8026,271.2061,88.8707,1.9953e-05,2.187e-05,0.0,0 STARLINK-5920,1 55935U 23037X   23140.88616476  .00002187  00000-0  19953-4 0  9997,2 55935  69.9994   0.8026 0003740 271.2061  88.8707 15.69926409 10251,6737.245,91.724,361.629,356.59,0.0
55935.0,STARLINK-5920,PAYLOAD,2023-05-21 00:19:35,15.69911672,0.0003325,69.9986,0.4442,273.5992,86.4824,-2.5427e-05,-3.267e-05,0.0,0 STARLINK-5920,1 55935U 23037X   23141.01360464 -.00003267  00000-0 -25427-4 0  9991,2 55935  69.9986   0.4442 0003325 273.5992  86.4824 15.69911672 10617,6737.287,91.725,361.392,356.912,0.0
55935.0,STARLINK-5920,PAYLOAD,2023-05-21 18:40:37,15.69916337,0.0003122,70.0004,358.2916,274.9011,85.1829,-6.0567e-06,-9.4e-06,0.0,0 STARLINK-5920,1 55935U 23037X   23141.77820900 -.00000940  00000-0 -60567-5 0  9990,2 55935  70.0004 358.2916 0003122 274.9011  85.1829 15.69916337 10392,6737.273,91.725,361.242,357.035,0.0
55935.0,STARLINK-5920,PAYLOAD,2023-05-21 23:15:51,15.69939045,0.0003713,69.9993,357.7561,268.1194,91.9577,5.6831e-05,6.631e-05,0.0,0 STARLINK-5920,1 55935U 23037X   23141.96935105  .00006631  00000-0  56831-4 0  9994,2 55935  69.9993 357.7561 0003713 268.1194  91.9577 15.69939045 10766,6737.208,91.723,361.575,356.572,0.0
55935.0,STARLINK-5920,PAYLOAD,2023-05-22 16:05:08,15.69932516,0.0003405,70.0,355.7853,271.424,88.6565,5.3246e-05,6.197e-05,0.0,0 STARLINK-5920,1 55935U 23037X   23142.67023727  .00006197  00000-0  53246-4 0  9995,2 55935  70.0000 355.7853 0003405 271.4240  88.6565 15.69932516 10875,6737.227,91.724,361.386,356.798,0.0
55935.0,STARLINK-5920,PAYLOAD,2023-05-22 23:43:54,15.69924257,0.000381,70.0,354.8904,274.2443,85.8317,2.0355e-05,2.235e-05,0.0,0 STARLINK-5920,1 55935U 23037X   23142.98882379  .00002235  00000-0  20355-4 0  9999,2 55935  70.0000 354.8904 0003810 274.2443  85.8317 15.69924257 10921,6737.251,91.724,361.683,356.549,0.0
55935.0,STARLINK-5920,PAYLOAD,2023-05-23 16:33:10,15.69929365,0.0003996,69.9993,352.9201,274.9286,85.1453,-8.9261e-07,-3.21e-06,0.0,0 STARLINK-5920,1 55935U 23037X   23143.68970434 -.00000321  00000-0 -89261-6 0  9996,2 55935  69.9993 352.9201 0003996 274.9286  85.1453 15.69929365 10698,6737.236,91.724,361.793,356.409,0.0
55935.0,STARLINK-5920,PAYLOAD,2023-05-23 22:40:10,15.69938254,0.0003814,69.9966,352.2024,267.4742,92.6018,1.0212e-05,1.016e-05,0.0,0 STARLINK-5920,1 55935U 23037X   23143.94456461  .00001016  00000-0  10212-4 0  9992,2 55935  69.9966 352.2024 0003814 267.4742  92.6018 15.69938254 11077,6737.211,91.723,361.645,356.506,0.0
55935.0,STARLINK-5920,PAYLOAD,2023-05-24 15:29:27,15.69917025,0.0003142,69.9978,350.2313,250.6358,109.4498,1.5214e-05,1.616e-05,0.0,0 STARLINK-5920,1 55935U 23037X   23144.64545901  .00001616  00000-0  15214-4 0  9991,2 55935  69.9978 350.2313 0003142 250.6358 109.4498 15.69917025 11184,6737.271,91.725,361.253,357.02,0.0
55935.0,STARLINK-5920,PAYLOAD,2023-05-25 14:25:44,15.69926309,0.0003158,69.9983,347.5459,252.1127,107.9724,1.4861e-05,1.575e-05,0.0,0 STARLINK-5920,1 55935U 23037X   23145.60120562  .00001575  00000-0  14861-4 0  9991,2 55935  69.9983 347.5459 0003158 252.1127 107.9724 15.69926309 10996,6737.245,91.724,361.237,356.982,0.0
55935.0,STARLINK-5920,PAYLOAD,2023-05-25 17:29:14,15.69924367,0.0003414,69.9974,347.1854,265.9073,94.1733,1.6558e-05,1.779e-05,0.0,0 STARLINK-5920,1 55935U 23037X   23145.72864091  .00001779  00000-0  16558-4 0  9997,2 55935  69.9974 347.1854 0003414 265.9073  94.1733 15.69924367 11358,6737.25,91.724,361.415,356.815,0.0
55935.0,STARLINK-5920,PAYLOAD,2023-05-25 22:04:29,15.69928375,0.0003494,69.9972,346.648,267.2594,92.8202,1.6223e-05,1.739e-05,0.0,0 STARLINK-5920,1 55935U 23037X   23145.91978859  .00001739  00000-0  16223-4 0  9991,2 55935  69.9972 346.6480 0003494 267.2594  92.8202 15.69928375 11041,6737.239,91.724,361.458,356.75,0.0
55935.0,STARLINK-5920,PAYLOAD,2023-05-25 23:36:15,15.69925952,0.000354,69.9975,346.4695,271.6555,88.4235,1.5153e-05,1.61e-05,0.0,0 STARLINK-5920,1 55935U 23037X   23145.98350777  .00001610  00000-0  15153-4 0  9990,2 55935  69.9975 346.4695 0003540 271.6555  88.4235 15.69925952 11054,6737.246,91.724,361.496,356.726,0.0
55935.0,STARLINK-5920,PAYLOAD,2023-05-26 16:25:31,15.69919861,0.0003458,69.9974,344.4983,269.6452,90.4348,4.3338e-06,3.08e-06,0.0,0 STARLINK-5920,1 55935U 23037X   23146.68439783  .00000308  00000-0  43338-5 0  9993,2 55935  69.9974 344.4983 0003458 269.6452  90.4348 15.69919861 11502,6737.263,91.724,361.458,356.799,0.0
55935.0,STARLINK-5920,PAYLOAD,2023-05-26 21:00:47,15.69924468,0.000338,69.9973,343.9612,265.5839,94.497,4.6977e-06,3.52e-06,0.0,0 STARLINK-5920,1 55935U 23037X   23146.87554460  .00000352  00000-0  46977-5 0  9995,2 55935  69.9973 343.9612 0003380 265.5839  94.4970 15.69924468 11191,6737.25,91.724,361.392,356.838,0.0
55935.0,STARLINK-5920,PAYLOAD,2023-05-27 21:28:48,15.69931478,0.0003443,69.9969,341.0953,269.8744,90.2057,8.9857e-06,8.68e-06,0.0,0 STARLINK-5920,1 55935U 23037X   23147.89500661  .00000868  00000-0  89857-5 0  9998,2 55935  69.9969 341.0953 0003443 269.8744  90.2057 15.69931478 11352,6737.23,91.724,361.415,356.775,0.0
55935.0,STARLINK-5920,PAYLOAD,2023-05-27 23:00:33,15.69928194,0.0003406,69.9972,340.9161,269.7352,90.3453,7.4668e-06,6.85e-06,0.0,0 STARLINK-5920,1 55935U 23037X   23147.95872609  .00000685  00000-0  74668-5 0  9990,2 55935  69.9972 340.9161 0003406 269.7352  90.3453 15.69928194 11709,6737.239,91.724,361.399,356.81,0.0
55935.0,STARLINK-5920,PAYLOAD,2023-05-28 20:25:05,15.69931609,0.0003351,69.9968,338.408,265.18,94.9013,1.4487e-05,1.53e-05,0.0,0 STARLINK-5920,1 55935U 23037X   23148.85075609  .00001530  00000-0  14487-4 0  9997,2 55935  69.9968 338.4080 0003351 265.1800  94.9013 15.69931609 11508,6737.23,91.724,361.352,356.837,0.0
55935.0,STARLINK-5920,PAYLOAD,2023-05-29 05:35:37,15.69916569,0.0003281,69.9971,337.3325,270.8956,89.1864,-3.3431e-06,-6.15e-06,0.0,0 STARLINK-5920,1 55935U 23037X   23149.23307002 -.00000615  00000-0 -33431-5 0  9991,2 55935  69.9971 337.3325 0003281 270.8956  89.1864 15.69916569 11901,6737.273,91.725,361.348,356.927,0.0
55935.0,STARLINK-5920,PAYLOAD,2023-05-29 14:46:07,15.69920855,0.0003258,69.9973,336.2583,267.9417,92.1405,2.7867e-06,1.22e-06,0.0,0 STARLINK-5920,1 55935U 23037X   23149.61536842  .00000122  00000-0  27867-5 0  9996,2 55935  69.9973 336.2583 0003258 267.9417  92.1405 15.69920855 11627,6737.26,91.724,361.32,356.93,0.0
55935.0,STARLINK-5920,PAYLOAD,2023-05-29 20:53:07,15.69930001,0.0003103,69.9971,335.5405,268.5326,91.5514,1.1371e-05,1.155e-05,0.0,0 STARLINK-5920,1 55935U 23037X   23149.87022816  .00001155  00000-0  11371-4 0  9994,2 55935  69.9971 335.5405 0003103 268.5326  91.5514 15.69930001 11667,6737.234,91.724,361.19,357.009,0.0
55935.0,STARLINK-5920,PAYLOAD,2023-05-29 22:24:52,15.6993024,0.0002989,69.997,335.3612,267.0032,93.0822,1.3303e-05,1.388e-05,0.0,0 STARLINK-5920,1 55935U 23037X   23149.93394527  .00001388  00000-0  13303-4 0  9997,2 55935  69.9970 335.3612 0002989 267.0032  93.0822 15.69930240 12017,6737.234,91.724,361.112,357.085,0.0
55935.0,STARLINK-5920,PAYLOAD,2023-05-30 06:03:38,15.69921132,0.0003107,69.9991,334.4665,270.5374,89.5466,1.7727e-05,1.919e-05,0.0,0 STARLINK-5920,1 55935U 23037X   23150.25253333  .00001919  00000-0  17727-4 0  9997,2 55935  69.9991 334.4665 0003107 270.5374  89.5466 15.69921132 12068,6737.26,91.724,361.218,357.031,0.0
55935.0,STARLINK-5920,PAYLOAD,2023-05-30 12:10:38,15.69928929,0.0003344,69.9988,333.7516,272.1596,87.9217,8.1303e-06,7.65e-06,0.0,0 STARLINK-5920,1 55935U 23037X   23150.50739519  .00000765  00000-0  81303-5 0  9990,2 55935  69.9988 333.7516 0003344 272.1596  87.9217 15.69928929 11761,6737.237,91.724,361.355,356.849,0.0
55935.0,STARLINK-5920,PAYLOAD,2023-05-30 15:14:09,15.69930607,0.0003375,69.9991,333.3921,267.8936,92.1873,1.6467e-05,1.768e-05,0.0,0 STARLINK-5920,1 55935U 23037X   23150.63482684  .00001768  00000-0  16467-4 0  9994,2 55935  69.9991 333.3921 0003375 267.8936  92.1873 15.69930607 12127,6737.233,91.724,361.371,356.824,0.0
55935.0,STARLINK-5920,PAYLOAD,2023-05-30 21:21:09,15.69930402,0.0003419,69.999,332.6755,268.3756,91.7048,1.6775e-05,1.805e-05,0.0,0 STARLINK-5920,1 55935U 23037X   23150.88969356  .00001805  00000-0  16775-4 0  9991,2 55935  69.9990 332.6755 0003419 268.3756  91.7048 15.69930402 11826,6737.233,91.724,361.402,356.795,0.0
55935.0,STARLINK-5920,PAYLOAD,2023-05-31 11:06:56,15.69920223,0.0003384,69.9985,331.062,274.2892,85.7917,5.7252e-06,4.76e-06,0.0,0 STARLINK-5920,1 55935U 23037X   23151.46315080  .00000476  00000-0  57252-5 0  9994,2 55935  69.9985 331.0620 0003384 274.2892  85.7917 15.69920223 12258,6737.262,91.724,361.407,356.847,0.0
